{
  "norad_id": 60261,
  "name": "STARLINK-32160",
  "history": [
    {
      "epoch": "2026-03-28T22:49:00.801408Z",
      "apogee_km": 476.0685772638235,
      "perigee_km": 474.5210723577811,
      "latitude_deg": -6.771474009271407e-06,
      "longitude_deg": 154.62316346300247,
      "height_km": 475.8821586076933,
      "semi_major_axis_km": 6853.431824810802,
      "eccentricity": 0.0001129,
      "inclination_deg": 53.1594,
      "raan_deg": 323.2403,
      "arg_perigee_deg": 66.3012,
      "mean_anomaly_deg": 293.8107,
      "mean_motion_rev_day": 15.30173289
    }
  ]
}